NORAD_CAT_ID,OBJECT_NAME,OBJECT_TYPE,EPOCH,MEAN_MOTION,ECCENTRICITY,INCLINATION,RA_OF_ASC_NODE,ARG_OF_PERICENTER,MEAN_ANOMALY,BSTAR,MEAN_MOTION_DOT,MEAN_MOTION_DDOT,TLE_LINE0,TLE_LINE1,TLE_LINE2,SEMIMAJOR_AXIS,PERIOD,APOGEE,PERIGEE,DECAYED
53805.0,STARLINK-4763,PAYLOAD,2024-01-19 15:19:29,15.08845846,0.0001459,53.2164,151.0376,74.59,285.5253,9.4354e-05,1.214e-05,0.0,0 STARLINK-4763,1 53805U 22111AJ  24019.63853090  .00001214  00000-0  94354-4 0  9995,2 53805  53.2164 151.0376 0001459  74.5900 285.5253 15.08845846 76261,6917.863,95.437,540.737,538.718,0.0
53805.0,STARLINK-4763,PAYLOAD,2024-01-20 11:59:30,15.08836052,0.0001608,53.2174,147.1716,101.2589,258.8584,-1.2282e-05,-4.83e-06,0.0,0 STARLINK-4763,1 53805U 22111AJ  24020.49965952 -.00000483  00000-0 -12282-4 0  9991,2 53805  53.2174 147.1716 0001608 101.2589 258.8584 15.08836052 75586,6917.892,95.438,540.87,538.645,0.0
53805.0,STARLINK-4763,PAYLOAD,2024-01-20 15:10:16,15.08835902,0.0001314,53.2162,146.5754,80.0186,280.0955,-1.9778e-05,-6.03e-06,0.0,0 STARLINK-4763,1 53805U 22111AJ  24020.63214054 -.00000603  00000-0 -19778-4 0  9998,2 53805  53.2162 146.5754 0001314  80.0186 280.0955 15.08835902 76414,6917.893,95.438,540.667,538.849,0.0
53805.0,STARLINK-4763,PAYLOAD,2024-01-20 18:21:02,15.08840206,0.0001257,53.2167,145.9797,91.8058,268.3078,1.1945e-05,-9.8e-07,0.0,0 STARLINK-4763,1 53805U 22111AJ  24020.76461630 -.00000098  00000-0  11945-4 0  9991,2 53805  53.2167 145.9797 0001257  91.8058 268.3078 15.08840206 76433,6917.88,95.438,540.614,538.875,0.0
53805.0,STARLINK-4763,PAYLOAD,2024-01-21 13:25:40,15.08842715,0.0001456,53.2177,142.4088,97.7572,262.3586,7.3482e-06,-1.71e-06,0.0,0 STARLINK-4763,1 53805U 22111AJ  24021.55949725 -.00000171  00000-0  73482-5 0  9992,2 53805  53.2177 142.4088 0001456  97.7572 262.3586 15.08842715 75744,6917.872,95.437,540.744,538.73,0.0
53805.0,STARLINK-4763,PAYLOAD,2024-01-22 11:41:04,15.08836104,0.0001263,53.2169,138.2487,82.4508,277.6628,0.00011036,1.469e-05,0.0,0 STARLINK-4763,1 53805U 22111AJ  24022.48686264  .00001469  00000-0  11036-3 0  9996,2 53805  53.2169 138.2487 0001263  82.4508 277.6628 15.08836104 75883,6917.892,95.438,540.631,538.884,0.0
53805.0,STARLINK-4763,PAYLOAD,2024-01-22 13:16:27,15.08839827,0.0001259,53.217,137.9499,88.9136,271.2,0.00012976,1.778e-05,0.0,0 STARLINK-4763,1 53805U 22111AJ  24022.55309957  .00001778  00000-0  12976-3 0  9992,2 53805  53.2170 137.9499 0001259  88.9136 271.2000 15.08839827 76708,6917.881,95.438,540.617,538.875,0.0
53805.0,STARLINK-4763,PAYLOAD,2024-01-23 11:31:51,15.08846785,0.00012,53.2164,133.791,75.2195,284.893,0.00010022,1.308e-05,0.0,0 STARLINK-4763,1 53805U 22111AJ  24023.48045689  .00001308  00000-0  10022-3 0  9993,2 53805  53.2164 133.7910 0001200  75.2195 284.8930 15.08846785 76032,6917.86,95.437,540.555,538.895,0.0
53805.0,STARLINK-4763,PAYLOAD,2024-01-23 14:42:37,15.08852396,0.0001269,53.2167,133.1941,80.8137,279.2999,0.00014265,1.984e-05,0.0,0 STARLINK-4763,1 53805U 22111AJ  24023.61293213  .00001984  00000-0  14265-3 0  9999,2 53805  53.2167 133.1941 0001269  80.8137 279.2999 15.08852396 76865,6917.842,95.437,540.585,538.83,0.0
53805.0,STARLINK-4763,PAYLOAD,2024-01-24 11:22:39,15.08839705,0.0001524,53.2183,129.3247,73.7921,286.3239,-5.1356e-05,-1.105e-05,0.0,0 STARLINK-4763,1 53805U 22111AJ  24024.47406657 -.00001105  00000-0 -51356-4 0  9992,2 53805  53.2183 129.3247 0001524  73.7921 286.3239 15.08839705 76185,6917.881,95.438,540.801,538.692,0.0
53805.0,STARLINK-4763,PAYLOAD,2024-01-24 14:33:25,15.08840312,0.0001496,53.2175,128.7342,73.9485,286.1672,2.3045e-06,-2.51e-06,0.0,0 STARLINK-4763,1 53805U 22111AJ  24024.60654577 -.00000251  00000-0  23045-5 0  9998,2 53805  53.2175 128.7342 0001496  73.9485 286.1672 15.08840312 77018,6917.879,95.438,540.779,538.71,0.0
53805.0,STARLINK-4763,PAYLOAD,2024-01-25 12:48:49,15.08845287,0.000144,53.2167,124.5693,83.304,276.8116,-2.9515e-05,-7.58e-06,0.0,0 STARLINK-4763,1 53805U 22111AJ  24025.53390447 -.00000758  00000-0 -29515-4 0  9994,2 53805  53.2167 124.5693 0001440  83.3040 276.8116 15.08845287 77153,6917.864,95.437,540.725,538.733,0.0
53805.0,STARLINK-4763,PAYLOAD,2024-01-26 12:39:35,15.08850245,0.000149,53.2173,120.1072,88.4529,271.6634,0.00015122,2.12e-05,0.0,0 STARLINK-4763,1 53805U 22111AJ  24026.52749729  .00002120  00000-0  15122-3 0  9996,2 53805  53.2173 120.1072 0001490  88.4529 271.6634 15.08850245 77301,6917.849,95.437,540.745,538.683,0.0
53805.0,STARLINK-4763,PAYLOAD,2024-01-26 15:50:21,15.08855786,0.0001547,53.2179,119.5101,95.7225,264.3943,0.00014771,2.065e-05,0.0,0 STARLINK-4763,1 53805U 22111AJ  24026.65997312  .00002065  00000-0  14771-3 0  9990,2 53805  53.2179 119.5101 0001547  95.7225 264.3943 15.08855786 76518,6917.832,95.437,540.767,538.627,0.0
53805.0,STARLINK-4763,PAYLOAD,2024-01-27 12:30:23,15.0885527,0.000172,53.2175,115.6366,114.9071,245.21,-0.00016666,-2.941e-05,0.0,0 STARLINK-4763,1 53805U 22111AJ  24027.52110200 -.00002941  00000-0 -16666-3 0  9990,2 53805  53.2175 115.6366 0001720 114.9071 245.2100 15.08855270 76645,6917.834,95.437,540.889,538.509,0.0
53805.0,STARLINK-4763,PAYLOAD,2024-01-28 10:45:47,15.08842935,0.0001509,53.2181,111.4845,106.076,254.0399,-5.8722e-05,-1.223e-05,0.0,0 STARLINK-4763,1 53805U 22111AJ  24028.44846805 -.00001223  00000-0 -58722-4 0  9991,2 53805  53.2181 111.4845 0001509 106.0760 254.0399 15.08842935 76787,6917.871,95.437,540.78,538.693,0.0
53805.0,STARLINK-4763,PAYLOAD,2024-01-29 12:11:57,15.08847727,0.0001562,53.2182,106.7289,94.9989,265.1182,0.0001981,2.867e-05,0.0,0 STARLINK-4763,1 53805U 22111AJ  24029.50830052  .00002867  00000-0  19810-3 0  9993,2 53805  53.2182 106.7289 0001562  94.9989 265.1182 15.08847727 76949,6917.857,95.437,540.802,538.641,0.0
53805.0,STARLINK-4763,PAYLOAD,2024-01-30 12:02:45,15.08839011,0.0001562,53.2181,102.2674,81.0256,279.0913,9.9067e-05,1.289e-05,0.0,0 STARLINK-4763,1 53805U 22111AJ  24030.50191211  .00001289  00000-0  99067-4 0  9992,2 53805  53.2181 102.2674 0001562  81.0256 279.0913 15.08839011 77091,6917.883,95.438,540.829,538.668,0.0
53805.0,STARLINK-4763,PAYLOAD,2024-01-31 13:28:54,15.0884647,0.0001576,53.2168,97.5113,82.0564,278.0607,7.0709e-05,8.38e-06,0.0,0 STARLINK-4763,1 53805U 22111AJ  24031.56174550  .00000838  00000-0  70709-4 0  9997,2 53805  53.2168  97.5113 0001576  82.0564 278.0607 15.08846470 78062,6917.861,95.437,540.816,538.635,0.0
53805.0,STARLINK-4763,PAYLOAD,2024-02-01 11:44:19,15.08838121,0.000173,53.2182,93.3486,72.8203,287.2979,6.8435e-05,8.01e-06,0.0,0 STARLINK-4763,1 53805U 22111AJ  24032.48911462  .00000801  00000-0  68435-4 0  9993,2 53805  53.2182  93.3486 0001730  72.8203 287.2979 15.08838121 77397,6917.886,95.438,540.948,538.554,0.0
53805.0,STARLINK-4763,PAYLOAD,2024-02-01 13:19:42,15.0884129,0.0001521,53.2179,93.0475,91.5135,268.6031,9.0406e-05,1.151e-05,0.0,0 STARLINK-4763,1 53805U 22111AJ  24032.55535103  .00001151  00000-0  90406-4 0  9997,2 53805  53.2179  93.0475 0001521  91.5135 268.6031 15.08841290 78213,6917.876,95.437,540.794,538.689,0.0
53805.0,STARLINK-4763,PAYLOAD,2024-02-02 09:59:43,15.08845134,0.000155,53.218,89.1816,85.724,274.393,4.178e-05,3.77e-06,0.0,0 STARLINK-4763,1 53805U 22111AJ  24033.41646998  .00000377  00000-0  41780-4 0  9998,2 53805  53.2180  89.1816 0001550  85.7240 274.3930 15.08845134 78341,6917.865,95.437,540.802,538.657,0.0
53805.0,STARLINK-4763,PAYLOAD,2024-02-03 03:28:57,15.08840025,0.0001672,53.2179,85.9114,77.4119,282.706,6.7686e-05,7.89e-06,0.0,0 STARLINK-4763,1 53805U 22111AJ  24034.14511368  .00000789  00000-0  67686-4 0  9991,2 53805  53.2179  85.9114 0001672  77.4119 282.7060 15.08840025 77645,6917.88,95.438,540.902,538.589,0.0
53805.0,STARLINK-4763,PAYLOAD,2024-02-03 13:01:16,15.08844143,0.000153,53.2172,84.1276,85.2891,274.8275,8.8471e-05,1.12e-05,0.0,0 STARLINK-4763,1 53805U 22111AJ  24034.54254979  .00001120  00000-0  88471-4 0  9992,2 53805  53.2172  84.1276 0001530  85.2891 274.8275 15.08844143 78517,6917.868,95.437,540.791,538.674,0.0
53805.0,STARLINK-4763,PAYLOAD,2024-02-04 06:30:30,15.08843025,0.000153,53.2169,80.8563,89.8725,270.2443,9.548e-05,1.232e-05,0.0,0 STARLINK-4763,1 53805U 22111AJ  24035.27118971  .00001232  00000-0  95480-4 0  9996,2 53805  53.2169  80.8563 0001530  89.8725 270.2443 15.08843025 77818,6917.871,95.437,540.795,538.678,0.0
53805.0,STARLINK-4763,PAYLOAD,2024-02-05 03:10:31,15.0883972,0.0001453,53.2174,76.9901,99.2066,260.9091,2.5001e-05,1.1e-06,0.0,0 STARLINK-4763,1 53805U 22111AJ  24036.13231312  .00000110  00000-0  25001-4 0  9993,2 53805  53.2174  76.9901 0001453  99.2066 260.9091 15.08839720 77949,6917.881,95.438,540.751,538.741,0.0
53805.0,STARLINK-4763,PAYLOAD,2024-02-05 09:32:04,15.0884361,0.0001407,53.2167,75.8021,86.415,273.7003,6.0631e-05,6.77e-06,0.0,0 STARLINK-4763,1 53805U 22111AJ  24036.39727017  .00000677  00000-0  60631-4 0  9999,2 53805  53.2167  75.8021 0001407  86.4150 273.7003 15.08843610 78795,6917.869,95.437,540.708,538.761,0.0
53805.0,STARLINK-4763,PAYLOAD,2024-02-06 07:47:28,15.08838789,0.0001558,53.2179,71.6425,94.9727,265.1443,8.2258e-05,1.021e-05,0.0,0 STARLINK-4763,1 53805U 22111AJ  24037.32463436  .00001021  00000-0  82258-4 0  9998,2 53805  53.2179  71.6425 0001558  94.9727 265.1443 15.08838789 78122,6917.884,95.438,540.827,538.671,0.0
53805.0,STARLINK-4763,PAYLOAD,2024-02-07 09:13:38,15.08843652,0.0001902,53.2176,66.8834,102.9092,257.2112,4.6171e-05,4.47e-06,0.0,0 STARLINK-4763,1 53805U 22111AJ  24038.38447464  .00000447  00000-0  46171-4 0  9993,2 53805  53.2176  66.8834 0001902 102.9092 257.2112 15.08843652 78284,6917.869,95.437,541.05,538.418,0.0
53805.0,STARLINK-4763,PAYLOAD,2024-02-07 18:45:57,15.08845107,0.0001529,53.2172,65.0956,80.7134,279.4031,4.5977e-05,4.44e-06,0.0,0 STARLINK-4763,1 53805U 22111AJ  24038.78191398  .00000444  00000-0  45977-4 0  9999,2 53805  53.2172  65.0956 0001529  80.7134 279.4031 15.08845107 79151,6917.865,95.437,540.788,538.672,0.0
